0 COSMOS 2251 DEB
1 37309U 93036BJZ 13278.99650728  .00010967  00000-0  16822-2 0  3516
2 37309 074.0482 023.3967 0121416 152.2672 327.4172 14.68782691219683
0 COSMOS 2251 DEB
1 37309U 93036BJZ 13281.72668097  .00020409  00000-0  31195-2 0  3522
2 37309 074.0473 018.1154 0121093 146.2701 003.8161 14.68838308220086
0 COSMOS 2251 DEB
1 37309U 93036BJZ 13285.24593127  .00011579  00000-0  17712-2 0  3532
2 37309 074.0471 011.3052 0120656 138.5188 253.7457 14.68944982220601
0 COSMOS 2251 DEB
1 37309U 93036BJZ 13287.91867017  .00018897  00000-0  28833-2 0  3547
2 37309 074.0483 006.1335 0120108 132.6725 347.9708 14.69003423220998
0 COSMOS 2251 DEB
1 37309U 93036BJZ 13290.89243901  .00011963  00000-0  18314-2 0  3559
2 37309 074.0423 000.3824 0118492 125.8017 235.1480 14.69071736221439
0 COSMOS 2251 DEB
1 37309U 93036BJZ 13290.91398329  .00011722  00000-0  17897-2 0  3566
2 37309 074.0474 000.3378 0119885 125.9547 349.0136 14.69079575221437
0 COSMOS 2251 DEB
1 37309U 93036BJZ 13292.19240123  .00009796  00000-0  14972-2 0  3576
2 37309 074.0519 357.8649 0119472 123.1797 270.1941 14.69106093221622
